41180,ORBCOMM FM119,2015,98.76,-1.0,-,47.0,Inactive,0,LEO,USA,ORBCOMM,Unknown,Unknown,Unknown,1 41180U 15081B   25127.97355829  .00000785  00000+0  20546-3 0  9993,2 41180  47.0020  26.0769 0001479 248.2115 111.8613 14.58086202499855,14.58086202,0.0001479,LEO
41181,ORBCOMM FM105,2015,99.64,-1.0,-,47.0,Inactive,0,LEO,USA,ORBCOMM,Unknown,Unknown,Unknown,1 41181U 15081C   25127.91628009  .00000344  00000+0  14186-3 0  9995,2 41181  47.0030  27.3861 0001228 153.2000 206.8944 14.45190711494926,14.45190711,0.0001228,LEO
40091,ORBCOMM FM103,2014,98.76,172.0,-,47.0,Inactive,1,LEO,USA,ORBCOMM,Commercial,Communications,Falcon,1 40091U 14040F   25127.69057274  .00000728  00000+0  19300-3 0  9992,2 40091  47.0048 209.0458 0000863 111.5982 248.4996 14.58114234558194,14.58114234,8.63e-05,LEO
41179,ORBCOMM FM114,2015,98.76,172.0,+,47.0,Active,1,LEO,USA,ORBCOMM,Commercial,Communications,Falcon,1 41179U 15081A   25127.43922933  .00000979  00000+0  24694-3 0  9991,2 41179  47.0013 119.3008 0001757 189.0229 171.0625 14.58149655498520,14.58149655,0.0001757,LEO
41182,ORBCOMM FM110,2015,98.76,172.0,+,47.0,Active,1,LEO,USA,ORBCOMM,Commercial,Communications,Falcon,1 41182U 15081D   25128.37718669  .00001238  00000+0  30321-3 0  9991,2 41182  47.0007 114.2690 0002612 326.1849  33.8869 14.58041216498711,14.58041216,0.0002612,LEO
41183,ORBCOMM FM118,2015,98.77,172.0,+,47.0,Active,1,LEO,USA,ORBCOMM,Commercial,Communications,Falcon,1 41183U 15081E   25128.29264299  .00000684  00000+0  18428-3 0  9996,2 41183  47.0029 115.1223 0003095 318.4450  41.6200 14.57982320498700,14.5798232,0.0003095,LEO
41184,ORBCOMM FM112,2015,98.76,172.0,+,47.0,Active,1,LEO,USA,ORBCOMM,Commercial,Communications,Falcon,1 41184U 15081F   25128.08718914  .00001126  00000+0  27869-3 0  9993,2 41184  47.0005  24.6996 0000976 202.7835 157.3007 14.58109137499869,14.58109137,9.76e-05,LEO
41185,ORBCOMM FM113,2015,98.76,172.0,+,47.0,Active,1,LEO,USA,ORBCOMM,Commercial,Communications,Falcon,1 41185U 15081G   25128.13251510  .00001075  00000+0  26779-3 0  9996,2 41185  47.0023  24.8038 0001143 221.6121 138.4678 14.58103545499876,14.58103545,0.0001143,LEO
